OBJECT_NAME,OBJECT_ID,EPOCH,MEAN_MOTION,ECCENTRICITY,INCLINATION,RA_OF_ASC_NODE,ARG_OF_PERICENTER,MEAN_ANOMALY,EPHEMERIS_TYPE,CLASSIFICATION_TYPE,NORAD_CAT_ID,ELEMENT_SET_NO,REV_AT_EPOCH,BSTAR,MEAN_MOTION_DOT,MEAN_MOTION_DDOT
TDRS 3,1988-091B,2026-06-18T09:16:00.578784,1.00272798,.0038393,12.6007,340.9974,356.2174,19.5963,0,U,19548,999,12540,0,-.309E-5,0
FLTSATCOM 8 (USA 46),1989-077A,2026-06-18T13:19:49.508832,1.00276789,.0004332,12.4212,351.1559,56.4284,184.8805,0,U,20253,999,26057,0,-.378E-5,0
SKYNET 4C,1990-079A,2026-06-11T04:50:51.491040,1.00274127,.00024,13.3424,349.8525,96.2313,279.5534,0,U,20776,999,13083,0,.132E-5,0
TDRS 5,1991-054B,2026-06-18T05:32:48.213312,1.00274771,.0006352,14.0710,353.7738,275.3826,272.8417,0,U,21639,999,12772,0,.73E-6,0
TDRS 6,1993-003B,2026-06-18T09:16:52.995936,1.00270951,.0008102,14.1828,357.0502,178.2098,184.7762,0,U,22314,999,12242,0,-.307E-5,0
UFO 2 (USA 95),1993-056A,2026-06-18T04:30:14.848704,1.00277211,.0005679,11.8950,3.5495,8.5548,350.5951,0,U,22787,999,11855,0,.114E-5,0
USA 99 (MILSTAR-1 1),1994-009A,2026-06-18T07:46:58.549728,0.98723793,.0000943,17.6290,27.6955,224.6344,129.6308,0,U,22988,999,3295,0,-.215E-5,0
UFO 4 (USA 108),1995-003A,2026-06-18T08:43:38.598816,1.00272798,.0003063,9.7022,13.2263,69.5782,126.8864,0,U,23467,999,11496,0,-.33E-6,0
TDRS 7,1995-035B,2026-06-18T14:49:20.361792,1.00264100,.0010975,13.3766,348.1804,79.3471,150.4600,0,U,23613,999,11326,0,-.246E-5,0
USA 115 (MILSTAR-1 2),1995-060A,2026-06-18T12:28:41.075040,1.00364382,.0001518,14.0735,3.7414,138.2916,218.1175,0,U,23712,999,3289,0,-.206E-5,0
INMARSAT 3-F1,1996-020A,2026-06-18T07:55:30.258048,0.99978480,.000378,10.6032,46.6244,53.3816,189.0686,0,U,23839,999,11026,0,-.122E-5,0
INMARSAT 3-F2,1996-053A,2026-06-18T13:28:31.771776,1.00002766,.0006657,9.8598,53.9229,31.2340,171.8212,0,U,24307,999,10893,0,-.279E-5,0
INMARSAT 3-F3,1996-070A,2026-06-17T20:00:33.763104,0.99982712,.00033433,10.3194,49.6476,26.3508,172.0689,0,U,24674,999,10791,0,.126E-5,0
AMC-3,1997-050A,2026-06-18T14:38:39.925248,0.99062357,.0004183,8.1688,63.9706,27.9610,258.0290,0,U,24936,999,5244,0,.5E-6,0
USA 134,1997-065A,2026-06-18T07:07:29.714016,1.00268932,.0003379,12.7859,21.7170,337.6766,261.7172,0,U,25019,999,3296,0,-.74E-6,0
INMARSAT 3-F5,1998-006B,2026-06-18T00:41:20.710752,1.00267375,.00044948,9.6958,53.2526,29.5667,139.7480,0,U,25153,999,10390,0,-.301E-5,0
ABS-6,1999-053A,2026-06-18T14:55:38.653824,1.00271151,.0003611,0.0186,301.2092,150.1682,198.4138,0,U,25924,999,9785,0,-.126E-5,0
UFO 10 (USA 146),1999-063A,2026-06-18T09:23:29.863104,1.00270744,.0001635,9.9070,27.1847,53.1182,304.2672,0,U,25967,999,9735,0,-.199E-5,0
ASIASTAR,2000-016A,2026-06-18T16:20:04.809408,1.00268125,.0004546,9.1339,58.1396,29.6208,169.1507,0,U,26107,999,9593,0,-.343E-5,0
USA 149 (DSP 20),2000-024A,2026-06-18T05:22:39.865728,1.00275274,.0001985,13.1716,11.8477,311.6380,218.2712,0,U,26356,999,3292,0,.83E-6,0
TDRS 8,2000-034A,2026-06-18T15:06:16.467264,1.00266921,.0004468,12.6857,31.3096,19.7875,166.9142,0,U,26388,999,9519,0,-.204E-5,0
NSS-11,2000-059A,2026-06-18T15:28:12.081792,1.00271709,.0002845,2.1312,81.3728,355.6985,237.8517,0,U,26554,999,4130,0,.18E-6,0
USA 153,2000-065A,2026-06-18T13:19:21.661248,1.00269288,.0003026,11.6271,35.4114,47.4698,158.2304,0,U,26575,999,3294,0,-.336E-5,0
AMC-6,2000-067A,2026-06-18T15:42:10.743264,1.00269221,.0003468,0.1570,83.0763,12.1058,272.2232,0,U,26580,999,9390,0,.82E-6,0
USA 157 (MILSTAR-2 2),2001-009A,2026-06-18T10:59:37.048416,1.00275422,.0039261,11.5445,19.7599,177.5848,84.2144,0,U,26715,999,3295,0,.98E-6,0
INTELSAT 902 (IS-902),2001-039A,2026-06-18T12:41:02.392224,1.00271543,.0004307,6.1204,71.7676,12.4923,322.6674,0,U,26900,999,9070,0,-.292E-5,0
USA 164 (MILSTAR-2 3),2002-001A,2026-06-17T19:16:14.672640,1.00277966,.00990447,11.1806,21.9069,8.4150,183.8658,0,U,27168,999,3296,0,.88E-6,0
INTELSAT 904 (IS-904),2002-007A,2026-06-18T11:03:47.464128,1.00270286,.000653,6.9241,69.1697,5.9759,326.0004,0,U,27380,999,5177,0,-.235E-5,0
DIRECTV 5 (TEMPO 1),2002-023A,2026-06-18T10:03:38.852352,1.00271613,.0003143,4.8819,75.2944,13.6987,218.4628,0,U,27426,999,8813,0,-.65E-6,0
INTELSAT 905 (IS-905),2002-027A,2026-06-18T11:11:38.839200,1.00271956,.0003874,6.7576,69.7858,22.2862,205.3245,0,U,27438,999,5137,0,.85E-6,0
GALAXY 3C (G-3C),2002-030A,2026-06-18T09:02:54.336192,1.00271347,.0001601,3.7359,77.9598,30.5698,198.9629,0,U,27445,999,4650,0,-.16E-5,0
